{
  "type": "FeatureCollection",
  "features": [
    {
      "type": "Feature",
      "properties": {
        "norad_id": 36036,
        "name": "SMOS",
        "group": "resource",
        "lat": 18.93540229618719,
        "lon": 165.16674266445386,
        "alt_km": 759.2249149380077,
        "timestamp": "2025-12-08T23:34:03.626273+00:00",
        "meta_object_name": "SMOS",
        "meta_object_id": "2009-059A",
        "meta_epoch": "2025-12-08T11:48:12.393504",
        "meta_mean_motion": 14.3973608,
        "meta_eccentricity": 0.0001108,
        "meta_inclination": 98.4383,
        "meta_ra_of_asc_node": 167.6032,
        "meta_arg_of_pericenter": 85.1871,
        "meta_mean_anomaly": 274.9444,
        "meta_ephemeris_type": 0,
        "meta_classification_type": "U",
        "meta_norad_cat_id": 36036,
        "meta_element_set_no": 999,
        "meta_rev_at_epoch": 84601,
        "meta_bstar": 0.00026203808,
        "meta_mean_motion_dot": 7.77e-06,
        "meta_mean_motion_ddot": 0,
        "tle_line1": "1 36036U 09059A   25342.49181011  .00000777  00000+0  26204-3 0  9999",
        "tle_line2": "2 36036  98.4383 167.6032 0001108  85.1871 274.9444 14.39736080846014"
      },
      "geometry": {
        "type": "Point",
        "coordinates": [
          165.16674266445386,
          18.93540229618719
        ]
      }
    },
    {
      "type": "Feature",
      "properties": {
        "norad_id": 36110,
        "name": "YAOGAN-7",
        "group": "resource",
        "lat": 50.613916142534265,
        "lon": -145.1491975581024,
        "alt_km": 639.3898660834393,
        "timestamp": "2025-12-08T23:34:03.626284+00:00",
        "meta_object_name": "YAOGAN-7",
        "meta_object_id": "2009-069A",
        "meta_epoch": "2025-12-08T15:12:38.687904",
        "meta_mean_motion": 14.77723918,
        "meta_eccentricity": 0.0023506,
        "meta_inclination": 98.0303,
        "meta_ra_of_asc_node": 224.4054,
        "meta_arg_of_pericenter": 295.2737,
        "meta_mean_anomaly": 64.6037,
        "meta_ephemeris_type": 0,
        "meta_classification_type": "U",
        "meta_norad_cat_id": 36110,
        "meta_element_set_no": 999,
        "meta_rev_at_epoch": 86148,
        "meta_bstar": 0.00019724373,
        "meta_mean_motion_dot": 1.367e-05,
        "meta_mean_motion_ddot": 0,
        "tle_line1": "1 36110U 09069A   25342.63378111  .00001367  00000+0  19724-3 0  9993",
        "tle_line2": "2 36110  98.0303 224.4054 0023506 295.2737  64.6037 14.77723918861480"
      },
      "geometry": {
        "type": "Point",
        "coordinates": [
          -145.1491975581024,
          50.613916142534265
        ]
      }
    },
    {
      "type": "Feature",
      "properties": {
        "norad_id": 36605,
        "name": "TANDEM-X",
        "group": "resource",
        "lat": 79.43849550419607,
        "lon": -147.0437376192125,
        "alt_km": 499.61704923938123,
        "timestamp": "2025-12-08T23:34:03.626295+00:00",
        "meta_object_name": "TANDEM-X",
        "meta_object_id": "2010-030A",
        "meta_epoch": "2025-12-08T13:39:18.929376",
        "meta_mean_motion": 15.19159019,
        "meta_eccentricity": 0.00020674,
        "meta_inclination": 97.4453,
        "meta_ra_of_asc_node": 348.0112,
        "meta_arg_of_pericenter": 89.3333,
        "meta_mean_anomaly": 270.8138,
        "meta_ephemeris_type": 0,
        "meta_classification_type": "U",
        "meta_norad_cat_id": 36605,
        "meta_element_set_no": 999,
        "meta_rev_at_epoch": 85770,
        "meta_bstar": 0.00014235004,
        "meta_mean_motion_dot": 2.924e-05,
        "meta_mean_motion_ddot": 0,
        "tle_line1": "1 36605U 10030A   25342.56896909  .00002924  00000+0  14235-3 0  9996",
        "tle_line2": "2 36605  97.4453 348.0112 0002067  89.3333 270.8138 15.19159019857704"
      },
      "geometry": {
        "type": "Point",
        "coordinates": [
          -147.0437376192125,
          79.43849550419607
        ]
      }
    },
    {
      "type": "Feature",
      "properties": {
        "norad_id": 36795,
        "name": "CARTOSAT-2B",
        "group": "resource",
        "lat": -35.1787957052962,
        "lon": 37.66880172109107,
        "alt_km": 644.5356900553434,
        "timestamp": "2025-12-08T23:34:03.626306+00:00",
        "meta_object_name": "CARTOSAT-2B",
        "meta_object_id": "2010-035A",
        "meta_epoch": "2025-12-08T15:36:30.647808",
        "meta_mean_motion": 14.787812,
        "meta_eccentricity": 0.0012912,
        "meta_inclination": 97.7858,
        "meta_ra_of_asc_node": 31.8136,
        "meta_arg_of_pericenter": 89.744,
        "meta_mean_anomaly": 270.5251,
        "meta_ephemeris_type": 0,
        "meta_classification_type": "U",
        "meta_norad_cat_id": 36795,
        "meta_element_set_no": 999,
        "meta_rev_at_epoch": 83169,
        "meta_bstar": 0.00020930389,
        "meta_mean_motion_dot": 1.49e-05,
        "meta_mean_motion_ddot": 0,
        "tle_line1": "1 36795U 10035A   25342.65035472  .00001490  00000+0  20930-3 0  9997",
        "tle_line2": "2 36795  97.7858  31.8136 0012912  89.7440 270.5251 14.78781200831692"
      },
      "geometry": {
        "type": "Point",
        "coordinates": [
          37.66880172109107,
          -35.1787957052962
        ]
      }
    },
    {
      "type": "Feature",
      "properties": {
        "norad_id": 36834,
        "name": "YAOGAN-10",
        "group": "resource",
        "lat": -33.753319919919875,
        "lon": 8.164684408136408,
        "alt_km": 621.5891982852709,
        "timestamp": "2025-12-08T23:34:03.626317+00:00",
        "meta_object_name": "YAOGAN-10",
        "meta_object_id": "2010-038A",
        "meta_epoch": "2025-12-08T14:42:20.155392",
        "meta_mean_motion": 14.84584384,
        "meta_eccentricity": 0.00015129,
        "meta_inclination": 97.9144,
        "meta_ra_of_asc_node": 2.4641,
        "meta_arg_of_pericenter": 84.8642,
        "meta_mean_anomaly": 68.8647,
        "meta_ephemeris_type": 0,
        "meta_classification_type": "U",
        "meta_norad_cat_id": 36834,
        "meta_element_set_no": 999,
        "meta_rev_at_epoch": 82892,
        "meta_bstar": 0.00038524739,
        "meta_mean_motion_dot": 3.199e-05,
        "meta_mean_motion_ddot": 0,
        "tle_line1": "1 36834U 10038A   25342.61273328  .00003199  00000+0  38525-3 0  9991",
        "tle_line2": "2 36834  97.9144   2.4641 0001512  84.8642  68.8647 14.84584384828925"
      },
      "geometry": {
        "type": "Point",
        "coordinates": [
          8.164684408136408,
          -33.753319919919875
        ]
      }
    },
    {
      "type": "Feature",
      "properties": {
        "norad_id": 37216,
        "name": "COSMO-SKYMED 4",
        "group": "resource",
        "lat": -75.67721643387094,
        "lon": -162.7811794839593,
        "alt_km": 630.7317370745841,
        "timestamp": "2025-12-08T23:34:03.626327+00:00",
        "meta_object_name": "COSMO-SKYMED 4",
        "meta_object_id": "2010-060A",
        "meta_epoch": "2025-12-08T14:11:51.898560",
        "meta_mean_motion": 14.82161711,
        "meta_eccentricity": 0.00013659,
        "meta_inclination": 97.8813,
        "meta_ra_of_asc_node": 163.9775,
        "meta_arg_of_pericenter": 83.0422,
        "meta_mean_anomaly": 277.0946,
        "meta_ephemeris_type": 0,
        "meta_classification_type": "U",
        "meta_norad_cat_id": 37216,
        "meta_element_set_no": 999,
        "meta_rev_at_epoch": 81633,
        "meta_bstar": 0.00014746943,
        "meta_mean_motion_dot": 1.122e-05,
        "meta_mean_motion_ddot": 0,
        "tle_line1": "1 37216U 10060A   25342.59157290  .00001122  00000+0  14747-3 0  9991",
        "tle_line2": "2 37216  97.8813 163.9775 0001365  83.0422 277.0946 14.82161711816337"
      },
      "geometry": {
        "type": "Point",
        "coordinates": [
          -162.7811794839593,
          -75.67721643387094
        ]
      }
    },
    {
      "type": "Feature",
      "properties": {
        "norad_id": 37387,
        "name": "RESOURCESAT-2",
        "group": "resource",
        "lat": -15.075383389419256,
        "lon": 48.93868346012165,
        "alt_km": 822.785209189311,
        "timestamp": "2025-12-08T23:34:03.626338+00:00",
        "meta_object_name": "RESOURCESAT-2",
        "meta_object_id": "2011-015A",
        "meta_epoch": "2025-12-08T15:11:35.725632",
        "meta_mean_motion": 14.21595005,
        "meta_eccentricity": 0.00066148,
        "meta_inclination": 98.7882,
        "meta_ra_of_asc_node": 46.2032,
        "meta_arg_of_pericenter": 53.2812,
        "meta_mean_anomaly": 306.8972,
        "meta_ephemeris_type": 0,
        "meta_classification_type": "U",
        "meta_norad_cat_id": 37387,
        "meta_element_set_no": 999,
        "meta_rev_at_epoch": 75910,
        "meta_bstar": 0.00016614446,
        "meta_mean_motion_dot": 3.2e-06,
        "meta_mean_motion_ddot": 0,
        "tle_line1": "1 37387U 11015A   25342.63305238  .00000320  00000+0  16614-3 0  9997",
        "tle_line2": "2 37387  98.7882  46.2032 0006614  53.2812 306.8972 14.21595005759106"
      },
      "geometry": {
        "type": "Point",
        "coordinates": [
          48.93868346012165,
          -15.075383389419256
        ]
      }
    }
  ]
}